OBJECT_NAME,OBJECT_ID,EPOCH,MEAN_MOTION,ECCENTRICITY,INCLINATION,RA_OF_ASC_NODE,ARG_OF_PERICENTER,MEAN_ANOMALY,EPHEMERIS_TYPE,CLASSIFICATION_TYPE,NORAD_CAT_ID,ELEMENT_SET_NO,REV_AT_EPOCH,BSTAR,MEAN_MOTION_DOT,MEAN_MOTION_DDOT
SHIJIAN-20 (SJ-20),2019-097A,2026-07-18T18:00:38.461824,1.00271182,.0015491,4.9973,74.6760,57.6721,119.1269,0,U,44910,999,2401,0,.127E-5,0
TJS-5,2020-002A,2026-07-18T17:32:57.865920,1.00271547,.0007955,0.0735,78.1313,338.0337,251.1031,0,U,44978,999,2402,0,-.349E-5,0
GSAT-30,2020-005A,2026-07-19T14:46:26.444640,1.00272923,.00032691,0.0434,245.4254,205.1633,151.4252,0,U,45026,999,2383,0,-.169E-5,0
EUTELSAT KONNECT,2020-005B,2026-07-18T06:24:54.237024,1.00268756,.00018586,0.0682,93.7099,146.1168,159.6636,0,U,45027,999,2464,0,.41E-6,0
JCSAT-17,2020-013A,2026-07-19T08:56:08.944800,1.00271283,.00032733,5.3923,357.1769,128.8512,81.1803,0,U,45245,999,2355,0,-.32E-5,0
GEO-KOMPSAT-2B,2020-013B,2026-07-19T13:47:15.746784,1.00273075,.00003712,0.0514,240.0679,305.9383,86.4207,0,U,45246,999,2360,0,-.348E-5,0
BEIDOU-3 G2,2020-017A,2026-07-19T13:33:24.576192,1.00272464,.00018327,2.9289,47.8051,58.0965,114.8207,0,U,45344,999,2358,0,-.146E-5,0
AEHF-6 (USA 298),2020-022B,2026-07-19T14:37:48.836928,1.00270107,.0041857,2.4784,301.5820,15.4735,337.5434,0,U,45465,999,2333,0,-.301E-5,0
BEIDOU-3 G3,2020-040A,2026-07-18T17:10:20.673120,1.00274773,.00022277,2.5232,67.4992,309.4166,287.6963,0,U,45807,999,2238,0,-.361E-5,0
APSTAR-6D,2020-045A,2026-07-18T07:01:05.767104,1.00280104,.00021459,0.0432,92.5886,2.3059,80.5040,0,U,45863,999,2217,0,-.324E-5,0
KOREASAT 116,2020-048A,2026-07-19T13:43:46.081632,1.00274520,.00009584,0.0163,1.7643,116.0132,141.6903,0,U,45920,999,2196,0,-.366E-5,0
EXPRESS 103,2020-053A,2026-07-18T06:50:29.284224,1.00272468,.00004759,0.0409,240.7231,187.7051,66.7797,0,U,45985,999,2196,0,-.288E-5,0
EXPRESS 80,2020-053B,2026-07-18T22:52:56.626752,1.00267555,.00007209,0.0128,29.8264,204.3074,125.8595,0,U,45986,999,2194,0,0,0
BSAT-4B,2020-056A,2026-07-19T14:17:29.186880,1.00271005,.00045782,0.0553,217.4555,272.1046,132.0106,0,U,46112,999,2171,0,-.354E-5,0
MEV-2,2020-056B,2026-07-19T13:10:09.482304,1.00270240,.00001195,0.0542,254.1335,297.3954,302.3375,0,U,46113,999,8101,0,-.16E-6,0
GALAXY 30 (G-30),2020-056C,2026-07-19T12:34:57.855936,1.00273013,.00022475,0.0186,56.1267,62.9342,241.9916,0,U,46114,999,2161,0,.32E-6,0
GAOFEN-13 01,2020-071A,2026-07-19T12:01:44.692608,1.00275949,.00445206,0.4794,86.1000,119.9417,29.8875,0,U,46610,999,2124,0,-.367E-5,0
TIANTONG-1 2,2020-082A,2026-07-18T20:40:17.919264,1.00272078,.00013097,0.7538,332.3255,130.6361,268.7125,0,U,46916,999,2097,0,-.362E-5,0
LUCAS (JDRS-1),2020-089A,2026-07-19T08:28:36.691680,1.00269434,.0001753,0.0643,268.0536,181.8258,65.1909,0,U,47202,999,2074,0,-.24E-5,0
SXM-7,2020-096A,2026-07-19T12:46:19.266816,1.00274017,.00036847,0.0224,100.9345,14.7461,288.0611,0,U,47240,999,776,0,-.21E-5,0
CMS-01,2020-099A,2026-07-19T14:46:26.435136,1.00272909,.00034491,0.0186,66.4483,203.5348,332.0205,0,U,47256,999,2052,0,-.169E-5,0
TURKSAT 5A,2021-001A,2026-07-18T23:36:38.786400,1.00270725,.00000386,0.0139,74.8512,249.6158,357.3848,0,U,47306,999,2028,0,.148E-5,0
TIANTONG-1 3,2021-003A,2026-07-19T14:24:56.361312,1.00269904,.00031093,1.7322,341.3621,143.4424,110.3214,0,U,47321,999,2028,0,-.157E-5,0
TJS-6,2021-010A,2026-07-19T12:18:51.898752,1.00273988,.00031115,0.1679,261.2097,239.7996,159.4978,0,U,47613,999,2013,0,.39E-6,0
SBIRS GEO-5 (USA 315),2021-042A,2026-07-19T10:12:01.681344,1.00271352,.00016087,5.0635,329.3712,150.1787,64.4688,0,U,48618,999,1909,0,-.271E-5,0
FENGYUN 4B,2021-047A,2026-07-19T05:21:02.283840,1.00277813,.00068605,0.2306,80.1873,273.3927,128.2750,0,U,48808,999,1889,0,-.336E-5,0
SXM-8,2021-049A,2026-07-19T12:46:19.266816,1.00270114,.00059916,0.0161,47.4513,344.1982,12.0959,0,U,48838,999,1890,0,-.209E-5,0
TIANLIAN 1-05,2021-063A,2026-07-19T02:59:31.143264,1.00274312,.00014818,1.6744,80.4356,91.5925,186.6122,0,U,49011,999,1839,0,.102E-5,0
STAR ONE D2,2021-069A,2026-07-19T12:50:41.348256,1.00271733,.00025967,0.0082,3.7136,137.1492,279.0710,0,U,49055,999,1826,0,0,0
EUTELSAT QUANTUM,2021-069B,2026-07-19T13:24:15.628608,1.00273720,.00022001,0.0106,36.2479,74.2831,75.5693,0,U,49056,999,1825,0,.122E-5,0
ZHONGXING-2E,2021-071A,2026-07-19T15:26:45.407904,1.00272663,.00012517,0.0517,239.3651,257.1375,130.6871,0,U,49062,999,1836,0,-.295E-5,0
TJS-7,2021-077A,2026-07-19T12:42:12.161952,1.00272996,.00029509,0.2728,263.7224,113.9292,10.7000,0,U,49115,999,987,0,-.128E-5,0
