SHIJIAN-20 (SJ-20)      
1 44910U 19097A   26199.75044516  .00000127  00000+0  00000+0 0  9991
2 44910   4.9973  74.6760 0015491  57.6721 119.1269  1.00271182 24018
TJS-5                   
1 44978U 20002A   26199.73122530 -.00000349  00000+0  00000+0 0  9991
2 44978   0.0735  78.1313 0007955 338.0337 251.1031  1.00271547 24023
GSAT-30                 
1 45026U 20005A   26200.61558385 -.00000169  00000+0  00000+0 0  9990
2 45026   0.0434 245.4254 0003269 205.1633 151.4252  1.00272923 23838
EUTELSAT KONNECT        
1 45027U 20005B   26199.26729441  .00000041  00000+0  00000+0 0  9990
2 45027   0.0682  93.7099 0001858 146.1168 159.6636  1.00268756 24649
JCSAT-17                
1 45245U 20013A   26200.37232575 -.00000320  00000+0  00000+0 0  9994
2 45245   5.3923 357.1769 0003273 128.8512  81.1803  1.00271283 23554
GEO-KOMPSAT-2B          
1 45246U 20013B   26200.57448781 -.00000348  00000+0  00000+0 0  9995
2 45246   0.0514 240.0679 0000371 305.9383  86.4207  1.00273075 23606
BEIDOU-3 G2             
1 45344U 20017A   26200.56486778 -.00000146  00000+0  00000+0 0  9991
2 45344   2.9289  47.8051 0001832  58.0965 114.8207  1.00272464 23581
AEHF-6 (USA 298)        
1 45465U 20022B   26200.60959302 -.00000301  00000+0  00000+0 0  9997
2 45465   2.4784 301.5820 0041857  15.4735 337.5434  1.00270107 23338
BEIDOU-3 G3             
1 45807U 20040A   26199.71551705 -.00000361  00000+0  00000+0 0  9997
2 45807   2.5232  67.4992 0002227 309.4166 287.6963  1.00274773 22386
APSTAR-6D               
1 45863U 20045A   26199.29242786 -.00000324  00000+0  00000+0 0  9992
2 45863   0.0432  92.5886 0002145   2.3059  80.5040  1.00280104 22171
KOREASAT 116            
1 45920U 20048A   26200.57206113 -.00000366  00000+0  00000+0 0  9993
2 45920   0.0163   1.7643 0000958 116.0132 141.6903  1.00274520 21962
EXPRESS 103             
1 45985U 20053A   26199.28506116 -.00000288  00000+0  00000+0 0  9994
2 45985   0.0409 240.7231 0000475 187.7051  66.7797  1.00272468 21960
EXPRESS 80              
1 45986U 20053B   26199.95343318  .00000000  00000+0  00000+0 0  9993
2 45986   0.0128  29.8264 0000720 204.3074 125.8595  1.00267555 21947
BSAT-4B                 
1 46112U 20056A   26200.59547670 -.00000354  00000+0  00000+0 0  9991
2 46112   0.0553 217.4555 0004578 272.1046 132.0106  1.00271005 21714
MEV-2                   
1 46113U 20056B   26200.54872086 -.00000016  00000+0  00000+0 0  9994
2 46113   0.0542 254.1335 0000119 297.3954 302.3375  1.00270240 81010
GALAXY 30 (G-30)        
1 46114U 20056C   26200.52428074  .00000032  00000+0  00000+0 0  9994
2 46114   0.0186  56.1267 0002247  62.9342 241.9916  1.00273013 21610
GAOFEN-13 01            
1 46610U 20071A   26200.50121172 -.00000367  00000+0  00000+0 0  9991
2 46610   0.4794  86.1000 0044520 119.9417  29.8875  1.00275949 21240
TIANTONG-1 2            
1 46916U 20082A   26199.86131851 -.00000362  00000+0  00000+0 0  9998
2 46916   0.7538 332.3255 0001309 130.6361 268.7125  1.00272078 20973
LUCAS (JDRS-1)          
1 47202U 20089A   26200.35320245 -.00000240  00000+0  00000+0 0  9993
2 47202   0.0643 268.0536 0001753 181.8258  65.1909  1.00269434 20741
SXM-7                   
1 47240U 20096A   26200.53216744 -.00000210  00000+0  00000+0 0  9998
2 47240   0.0224 100.9345 0003684  14.7461 288.0611  1.00274017  7761
CMS-01                  
1 47256U 20099A   26200.61558374 -.00000169  00000+0  00000+0 0  9998
2 47256   0.0186  66.4483 0003449 203.5348 332.0205  1.00272909 20521
TURKSAT 5A              
1 47306U 21001A   26199.98378225  .00000148  00000+0  00000+0 0  9996
2 47306   0.0139  74.8512 0000038 249.6158 357.3848  1.00270725 20282
TIANTONG-1 3            
1 47321U 21003A   26200.60065233 -.00000157  00000+0  00000+0 0  9990
2 47321   1.7322 341.3621 0003109 143.4424 110.3214  1.00269904 20284
TJS-6                   
1 47613U 21010A   26200.51310068  .00000039  00000+0  00000+0 0  9999
2 47613   0.1679 261.2097 0003111 239.7996 159.4978  1.00273988 20131
SBIRS GEO-5 (USA 315)   
1 48618U 21042A   26200.42501946 -.00000271  00000+0  00000+0 0  9996
2 48618   5.0635 329.3712 0001608 150.1787  64.4688  1.00271352 19095
FENGYUN 4B              
1 48808U 21047A   26200.22294310 -.00000336  00000+0  00000+0 0  9996
2 48808   0.2306  80.1873 0006860 273.3927 128.2750  1.00277813 18891
SXM-8                   
1 48838U 21049A   26200.53216744 -.00000209  00000+0  00000+0 0  9999
2 48838   0.0161  47.4513 0005991 344.1982  12.0959  1.00270114 18900
TIANLIAN 1-05           
1 49011U 21063A   26200.12466601  .00000102  00000+0  00000+0 0  9994
2 49011   1.6744  80.4356 0001481  91.5925 186.6122  1.00274312 18397
STAR ONE D2             
1 49055U 21069A   26200.53520079  .00000000  00000+0  00000+0 0  9990
2 49055   0.0082   3.7136 0002596 137.1492 279.0710  1.00271733 18261
EUTELSAT QUANTUM        
1 49056U 21069B   26200.55851422  .00000122  00000+0  00000+0 0  9997
2 49056   0.0106  36.2479 0002200  74.2831  75.5693  1.00273720 18256
ZHONGXING-2E            
1 49062U 21071A   26200.64358111 -.00000295  00000+0  00000+0 0  9996
2 49062   0.0517 239.3651 0001251 257.1375 130.6871  1.00272663 18365
TJS-7                   
1 49115U 21077A   26200.52930743 -.00000128  00000+0  00000+0 0  9990
2 49115   0.2728 263.7224 0002950 113.9292  10.7000  1.00272996  9878
